{"type": "FeatureCollection", "features": [ {"type": "Feature", "properties": {"norad_id": 66537, "name": "STARLINK-35582", "group": "last-30-days", "lat": 41.187015669263836, "lon": 145.25269098134464, "alt_km": 408.1005524085167, "timestamp": "2025-12-15T22:44:27.659615+00:00", "meta": {"OBJECT_NAME": "STARLINK-35582", "OBJECT_ID": "2025-265X", "EPOCH": "2025-12-15T03:44:24.981216", "MEAN_MOTION": 15.50630023, "ECCENTRICITY": 1.888e-05, "INCLINATION": 42.9969, "RA_OF_ASC_NODE": 39.7918, "ARG_OF_PERICENTER": 190.5538, "MEAN_ANOMALY": 169.5319, "EPHEMERIS_TYPE": 0, "CLASSIFICATION_TYPE": "U", "NORAD_CAT_ID": 66537, "ELEMENT_SET_NO": 999, "REV_AT_EPOCH": 413, "BSTAR": 0.00085030933, "MEAN_MOTION_DOT": 0.00049952, "MEAN_MOTION_DDOT": 0}, "tle": {"line1": "1 66537U 25265X   25349.15584469  .00049952  00000+0  85031-3 0  9990", "line2": "2 66537  42.9969  39.7918 0000188 190.5538 169.5319 15.50630023  4130"}}, "geometry": {"type": "Point", "coordinates": [145.25269098134464, 41.187015669263836]}}, {"type": "Feature", "properties": {"norad_id": 66538, "name": "STARLINK-35577", "group": "last-30-days", "lat": 40.727503129408284, "lon": 147.6556510077033, "alt_km": 408.5289336366459, "timestamp": "2025-12-15T22:44:27.659625+00:00", "meta": {"OBJECT_NAME": "STARLINK-35577", "OBJECT_ID": "2025-265Y", "EPOCH": "2025-12-15T03:43:55.460064", "MEAN_MOTION": 15.50614397, "ECCENTRICITY": 4.994e-05, "INCLINATION": 43.0014, "RA_OF_ASC_NODE": 39.7922, "ARG_OF_PERICENTER": 281.4831, "MEAN_ANOMALY": 78.5973, "EPHEMERIS_TYPE": 0, "CLASSIFICATION_TYPE": "U", "NORAD_CAT_ID": 66538, "ELEMENT_SET_NO": 999, "REV_AT_EPOCH": 413, "BSTAR": 0.00092327968, "MEAN_MOTION_DOT": 0.00054267, "MEAN_MOTION_DDOT": 0}, "tle": {"line1": "1 66538U 25265Y   25349.15550301  .00054267  00000+0  92328-3 0  9991", "line2": "2 66538  43.0014  39.7922 0000499 281.4831  78.5973 15.50614397  4131"}}, "geometry": {"type": "Point", "coordinates": [147.6556510077033, 40.727503129408284]}}, {"type": "Feature", "properties": {"norad_id": 66539, "name": "STARLINK-35697", "group": "last-30-days", "lat": 40.04753686293675, "lon": 150.72721951070804, "alt_km": 409.134690867073, "timestamp": "2025-12-15T22:44:27.659635+00:00", "meta": {"OBJECT_NAME": "STARLINK-35697", "OBJECT_ID": "2025-265Z", "EPOCH": "2025-12-14T10:43:06.045600", "MEAN_MOTION": 15.50602705, "ECCENTRICITY": 0.00018669, "INCLINATION": 43.0006, "RA_OF_ASC_NODE": 43.9284, "ARG_OF_PERICENTER": 277.9467, "MEAN_ANOMALY": 82.1181, "EPHEMERIS_TYPE": 0, "CLASSIFICATION_TYPE": "U", "NORAD_CAT_ID": 66539, "ELEMENT_SET_NO": 999, "REV_AT_EPOCH": 402, "BSTAR": 0.0013416759, "MEAN_MOTION_DOT": 0.00079237, "MEAN_MOTION_DDOT": 0}, "tle": {"line1": "1 66539U 25265Z   25348.44659775  .00079237  00000+0  13417-2 0  9993", "line2": "2 66539  43.0006  43.9284 0001866 277.9467  82.1181 15.50602705  4025"}}, "geometry": {"type": "Point", "coordinates": [150.72721951070804, 40.04753686293675]}}, {"type": "Feature", "properties": {"norad_id": 66540, "name": "STARLINK-35818", "group": "last-30-days", "lat": 39.43349320398702, "lon": 153.1919131683725, "alt_km": 409.3567717602564, "timestamp": "2025-12-15T22:44:27.659646+00:00", "meta": {"OBJECT_NAME": "STARLINK-35818", "OBJECT_ID": "2025-265AA", "EPOCH": "2025-12-14T10:42:36.050976", "MEAN_MOTION": 15.5061211, "ECCENTRICITY": 0.00021246, "INCLINATION": 43.0006, "RA_OF_ASC_NODE": 43.9248, "ARG_OF_PERICENTER": 273.7658, "MEAN_ANOMALY": 86.296, "EPHEMERIS_TYPE": 0, "CLASSIFICATION_TYPE": "U", "NORAD_CAT_ID": 66540, "ELEMENT_SET_NO": 999, "REV_AT_EPOCH": 402, "BSTAR": 0.0013575355, "MEAN_MOTION_DOT": 0.00080216, "MEAN_MOTION_DDOT": 0}, "tle": {"line1": "1 66540U 25265AA  25348.44625059  .00080216  00000+0  13575-2 0  9997", "line2": "2 66540  43.0006  43.9248 0002124 273.7658  86.2960 15.50612110  4022"}}, "geometry": {"type": "Point", "coordinates": [153.1919131683725, 39.43349320398702]}}, {"type": "Feature", "properties": {"norad_id": 66541, "name": "STARLINK-35796", "group": "last-30-days", "lat": 23.291786011678873, "lon": 62.842755592129755, "alt_km": 440.50307479793264, "timestamp": "2025-12-15T22:44:27.659655+00:00", "meta": {"OBJECT_NAME": "STARLINK-35796", "OBJECT_ID": "2025-265AB", "EPOCH": "2025-12-15T08:00:01.999872", "MEAN_MOTION": 15.40692885, "ECCENTRICITY": 0.00011324, "INCLINATION": 43.0008, "RA_OF_ASC_NODE": 38.8687, "ARG_OF_PERICENTER": 290.899, "MEAN_ANOMALY": 293.9731, "EPHEMERIS_TYPE": 0, "CLASSIFICATION_TYPE": "U", "NORAD_CAT_ID": 66541, "ELEMENT_SET_NO": 999, "REV_AT_EPOCH": 541, "BSTAR": 0.00010264474, "MEAN_MOTION_DOT": 3.986e-05, "MEAN_MOTION_DDOT": 0}, "tle": {"line1": "1 66541U 25265AB  25349.33335648  .00003986  00000+0  10264-3 0  9991", "line2": "2 66541  43.0008  38.8687 0001132 290.8990 293.9731 15.40692885  5415"}}, "geometry": {"type": "Point", "coordinates": [62.842755592129755, 23.291786011678873]}}, {"type": "Feature", "properties": {"norad_id": 66542, "name": "STARLINK-35833", "group": "last-30-days", "lat": 42.75394568950884, "lon": 118.00454710685608, "alt_km": 434.0762278624079, "timestamp": "2025-12-15T22:44:27.659668+00:00", "meta": {"OBJECT_NAME": "STARLINK-35833", "OBJECT_ID": "2025-265AC", "EPOCH": "2025-12-15T08:00:01.999872", "MEAN_MOTION": 15.44735497, "ECCENTRICITY": 7.901e-05, "INCLINATION": 43.0009, "RA_OF_ASC_NODE": 38.7667, "ARG_OF_PERICENTER": 278.054, "MEAN_ANOMALY": 350.0692, "EPHEMERIS_TYPE": 0, "CLASSIFICATION_TYPE": "U", "NORAD_CAT_ID": 66542, "ELEMENT_SET_NO": 999, "REV_AT_EPOCH": 541, "BSTAR": -0.047424924, "MEAN_MOTION_DOT": -0.02020595, "MEAN_MOTION_DDOT": 0}, "tle": {"line1": "1 66542U 25265AC  25349.33335648 -.02020595  00000+0 -47425-1 0  9998", "line2": "2 66542  43.0009  38.7667 0000790 278.0540 350.0692 15.44735497  5414"}}, "geometry": {"type": "Point", "coordinates": [118.00454710685608, 42.75394568950884]}}, {"type": "Feature", "properties": {"norad_id": 66543, "name": "STARLINK-35315", "group": "last-30-days", "lat": 37.616978847982956, "lon": 159.3526694876464, "alt_km": 409.58013959752407, "timestamp": "2025-12-15T22:44:27.659679+00:00", "meta": {"OBJECT_NAME": "STARLINK-35315", "OBJECT_ID": "2025-265AD", "EPOCH": "2025-12-15T03:41:27.002400", "MEAN_MOTION": 15.50615139, "ECCENTRICITY": 0.00015853, "INCLINATION": 43.0021, "RA_OF_ASC_NODE": 39.7758, "ARG_OF_PERICENTER": 258.4542, "MEAN_ANOMALY": 101.614, "EPHEMERIS_TYPE": 0, "CLASSIFICATION_TYPE": "U", "NORAD_CAT_ID": 66543, "ELEMENT_SET_NO": 999, "REV_AT_EPOCH": 413, "BSTAR": 0.00092829274, "MEAN_MOTION_DOT": 0.00054568, "MEAN_MOTION_DDOT": 0}, "tle": {"line1": "1 66543U 25265AD  25349.15378475  .00054568  00000+0  92829-3 0  9997", "line2": "2 66543  43.0021  39.7758 0001585 258.4542 101.6140 15.50615139  4131"}}, "geometry": {"type": "Point", "coordinates": [159.3526694876464, 37.616978847982956]}}, {"type": "Feature", "properties": {"norad_id": 66544, "name": "STARLINK-35728", "group": "last-30-days", "lat": 36.86080992166635, "lon": 161.5563892188414, "alt_km": 409.4501782396974, "timestamp": "2025-12-15T22:44:27.659689+00:00", "meta": {"OBJECT_NAME": "STARLINK-35728", "OBJECT_ID": "2025-265AE", "EPOCH": "2025-12-15T03:40:57.552960", "MEAN_MOTION": 15.50618829, "ECCENTRICITY": 0.00010333, "INCLINATION": 42.9999, "RA_OF_ASC_NODE": 39.7735, "ARG_OF_PERICENTER": 267.9462, "MEAN_ANOMALY": 92.128, "EPHEMERIS_TYPE": 0, "CLASSIFICATION_TYPE": "U", "NORAD_CAT_ID": 66544, "ELEMENT_SET_NO": 999, "REV_AT_EPOCH": 413, "BSTAR": 0.00081010086, "MEAN_MOTION_DOT": 0.00047539, "MEAN_MOTION_DDOT": 0}, "tle": {"line1": "1 66544U 25265AE  25349.15344390  .00047539  00000+0  81010-3 0  9997", "line2": "2 66544  42.9999  39.7735 0001033 267.9462  92.1280 15.50618829  4131"}}, "geometry": {"type": "Point", "coordinates": [161.5563892188414, 36.86080992166635]}}, {"type": "Feature", "properties": {"norad_id": 66545, "name": "SHIJIAN-30A", "group": "last-30-days", "lat": 31.310881191236177, "lon": 109.21224232995408, "alt_km": 521.1939393995326, "timestamp": "2025-12-15T22:44:27.659699+00:00", "meta": {"OBJECT_NAME": "SHIJIAN-30A", "OBJECT_ID": "2025-266A", "EPOCH": "2025-12-15T12:38:14.542944", "MEAN_MOTION": 15.15515166, "ECCENTRICITY": 0.0012932, "INCLINATION": 51.7983, "RA_OF_ASC_NODE": 319.8067, "ARG_OF_PERICENTER": 6.4442, "MEAN_ANOMALY": 353.6698, "EPHEMERIS_TYPE": 0, "CLASSIFICATION_TYPE": "U", "NORAD_CAT_ID": 66545, "ELEMENT_SET_NO": 999, "REV_AT_EPOCH": 400, "BSTAR": 0.00045087, "MEAN_MOTION_DOT": 8.364e-05, "MEAN_MOTION_DDOT": 0}, "tle": {"line1": "1 66545U 25266A   25349.52655721  .00008364  00000+0  45087-3 0  9990", "line2": "2 66545  51.7983 319.8067 0012932   6.4442 353.6698 15.15515166  4002"}}, "geometry": {"type": "Point", "coordinates": [109.21224232995408, 31.310881191236177]}}, {"type": "Feature", "properties": {"norad_id": 66546, "name": "SHIJIAN-30B", "group": "last-30-days", "lat": 35.692999486392836, "lon": 103.38699695066609, "alt_km": 518.5222513177241, "timestamp": "2025-12-15T22:44:27.659712+00:00", "meta": {"OBJECT_NAME": "SHIJIAN-30B", "OBJECT_ID": "2025-266B", "EPOCH": "2025-12-15T12:39:57.360672", "MEAN_MOTION": 15.15489775, "ECCENTRICITY": 0.0010667, "INCLINATION": 51.7967, "RA_OF_ASC_NODE": 319.8104, "ARG_OF_PERICENTER": 9.7854, "MEAN_ANOMALY": 350.3328, "EPHEMERIS_TYPE": 0, "CLASSIFICATION_TYPE": "U", "NORAD_CAT_ID": 66546, "ELEMENT_SET_NO": 999, "REV_AT_EPOCH": 400, "BSTAR": 0.00051437, "MEAN_MOTION_DOT": 9.575e-05, "MEAN_MOTION_DDOT": 0}, "tle": {"line1": "1 66546U 25266B   25349.52774723  .00009575  00000+0  51437-3 0  9996", "line2": "2 66546  51.7967 319.8104 0010667   9.7854 350.3328 15.15489775  4003"}}, "geometry": {"type": "Point", "coordinates": [103.38699695066609, 35.692999486392836]}}]}